XRISM                   
1 57800U 23137A   24006.34170177  .00004327  00000+0  34079-3 0  9999
2 57800  31.0052 327.4826 0009718  34.3413 325.7849 14.99142766 18138
